CUTE-1 (CO-55)          
1 27844U 03031E   20145.93494891  .00000034  00000-0  34722-4 0  9990
2 27844  98.6820 154.0253 0010963 120.2377 239.9887 14.22238730876796
CUBESAT XI-IV (CO-57)   
1 27848U 03031J   20143.98434935  .00000026  00000-0  31720-4 0  9996
2 27848  98.6888 152.6587 0010596 136.4825 223.7190 14.21824991876323
CUBESAT XI-V            
1 28895U 05043F   20145.62562676  .00000088  00000-0  25720-4 0  9992
2 28895  98.0062 282.6528 0016648   0.9684 359.1548 14.63768854777350
CUTE-1.7+APD II (CO-65) 
1 32785U 08021C   20145.73593025  .00000155  00000-0  22315-4 0  9990
2 32785  97.5721 134.7974 0012230 205.8863 154.1743 14.88466931654418
AAUSAT-II               
1 32788U 08021F   20144.95662346  .00000730  00000-0  71579-4 0  9994
2 32788  97.4913 150.5453 0012959 132.6589 227.5726 14.95045162655752
DELFI-C3 (DO-64)        
1 32789U 08021G   20145.64140265  .00000744  00000-0  52671-4 0  9990
2 32789  97.4199 189.2741 0013165  44.5036 315.7247 15.07689092658229
SEEDS II (CO-66)        
1 32791U 08021J   20145.97915625  .00000192  00000-0  24729-4 0  9999
2 32791  97.5403 141.1677 0013335 173.7626 186.3761 14.91042283654883
SWISSCUBE               
1 35932U 09051B   20145.92655473  .00000108  00000-0  35405-4 0  9990
2 35932  98.6101 327.4557 0007277 190.0364 170.0688 14.56391087566447
BEESAT-1                
1 35933U 09051C   20145.70403038  .00000081  00000-0  29367-4 0  9995
2 35933  98.6099 329.0879 0005214 201.8350 158.2626 14.56467078566448
ITUPSAT1                
1 35935U 09051E   20145.06621712  .00000070  00000-0  27284-4 0  9991
2 35935  98.6206 328.6332 0007485 206.2756 153.8061 14.55613636566154
TISAT 1                 
1 36799U 10035E   20145.95402364  .00000413  00000-0  47479-4 0  9991
2 36799  98.1928 315.3271 0013291  51.6789 308.5621 14.91348595535420
M-CUBED & EXP-1 PRIME   
1 37855U 11061F   20145.66372757  .00001192  00000-0  66229-4 0  9994
2 37855 101.7129 221.8138 0171337 145.5487 215.6975 15.06248226467628
AEROCUBE 4.5A           
1 38767U 12048K   20145.89034962  .00000424  00000-0  49401-4 0  9991
2 38767  64.6662 309.9929 0143439 144.5430 216.5323 14.92270903 38289
AEROCUBE 4.5B           
1 38768U 12048L   20144.68719935  .00000595  00000-0  59014-4 0  9998
2 38768  64.6669 282.7404 0132445 141.0358 220.0393 14.95934749 38172
STRAND-1                
1 39090U 13009E   20145.44429270  .00000021  00000-0  22403-4 0  9996
2 39090  98.4585 350.1421 0009218   4.0406 356.0853 14.35130628379262
SOMP                    
1 39134U 13015E   20144.98349495  .00000868  00000-0  47801-4 0  9998
2 39134  64.8637 357.2683 0034093 247.5202 112.2315 15.21010343391953
BEESAT-3                
1 39135U 13015F   20145.98846841  .00000635  00000-0  40391-4 0  9996
2 39135  64.8662  17.1956 0037501 251.9876 107.7163 15.18136359392043
BEESAT-2                
1 39136U 13015G   20146.02665337  .00000706  00000-0  44650-4 0  9993
2 39136  64.8698  21.9627 0029797 280.7846  78.9926 15.17529099391957
NEE-01 PEGASO           
1 39151U 13018B   20143.98329859  .00000119  00000-0  22621-4 0  9993
2 39151  97.9712 242.9765 0017118 178.1989 181.9287 14.80164734381918
ESTCUBE 1               
1 39161U 13021C   20146.24161234  .00000111  00000-0  25357-4 0  9992
2 39161  97.9634 229.7374 0008986 321.7609  38.2960 14.72315500378625
POPACS 1                
1 39268U 13055D   20145.93882094  .00001261  00000-0  34557-4 0  9995
2 39268  81.0001 321.0246 0616528 292.1293  61.5566 14.39175308344612
POPACS 2                
1 39269U 13055E   20144.30832122  .00002428  00000-0  68235-4 0  9999
2 39269  81.0145   0.1678 0678797  33.8947 330.3734 14.25393468343626
POPACS 3                
1 39270U 13055F   20145.39595597  .00001846  00000-0  55514-4 0  9992
2 39270  81.0183  20.3635 0711066  91.9201 276.3493 14.16825792342420
ZACUBE-1 (TSHEPISOSAT)  
1 39417U 13066B   20144.03344224  .00000173  00000-0  28039-4 0  9990
2 39417  97.5646 143.4710 0058945   2.8867 357.2675 14.81268545351272
WNISAT-1                
1 39423U 13066H   20146.25010138  .00000010  00000-0  12119-4 0  9999
2 39423  97.8011  69.3156 0175118 328.3414  30.7339 14.53116095345065
TRITON-1                
1 39427U 13066M   20146.50809832  .00000110  00000-0  25412-4 0  9999
2 39427  97.7228 108.7124 0114012 150.7925 209.9712 14.67995427348495
GOMX-1                  
1 39430U 13066Q   20146.49366336  .00000105  00000-0  28550-4 0  9998
2 39430  97.7896  86.4097 0149506 256.9642 101.4827 14.59394472346453
CUBEBUG-2 (LO-74)       
1 39440U 13066AA  20145.76275348  .00000170  00000-0  30381-4 0  9997
2 39440  97.6297 129.5749 0081491  57.7513 303.1562 14.76005290349088
NEE-02 KRYSAOR          
1 39441U 13066AB  20145.48708300  .00000098  00000-0  20945-4 0  9990
2 39441  97.6369 126.8469 0083139  67.2611 293.7359 14.75013136350036
FUNCUBE-1 (AO-73)       
1 39444U 13066AE  20145.66608509  .00000221  00000-0  33376-4 0  9993
2 39444  97.5590 147.2300 0057644 349.8699  10.1349 14.82120517350436
UWE-3                   
1 39446U 13066AG  20145.65645453  .00000168  00000-0  28804-4 0  9993
2 39446  97.5976 136.6636 0070725  28.6253 331.8813 14.78539951349644
AEROCUBE 5A             
1 39465U 13072D   20145.80912349  .00001923  00000-0  18663-3 0  9990
2 39465 120.4945  77.5478 0259672 219.5913 138.5909 14.76351095 37874
AEROCUBE 5B             
1 39466U 13072E   20145.90149760  .00002608  00000-0  20882-3 0  9998
2 39466 120.4894 113.3909 0230717 228.2234 129.8895 14.85922466 38074
BRITE-CA1 (TORONTO)     
1 40020U 14033L   20146.07991977  .00000013  00000-0  10370-4 0  9998
2 40020  97.7313 335.6318 0088185 146.5085 214.1739 14.66645103317347
DUCHIFAT-1              
1 40021U 14033M   20145.72226926  .00000183  00000-0  24477-4 0  9996
2 40021  97.9423  76.8135 0013293  12.5476 347.6070 14.90894609322358
NANOSATC-BR1            
1 40024U 14033Q   20145.53048946  .00000269  00000-0  33764-4 0  9996
2 40024  97.9274  73.0784 0012725  17.7382 342.4277 14.90065300321670
QB50P1                  
1 40025U 14033R   20145.33212744  .00000249  00000-0  32417-4 0  9996
2 40025  97.9153  69.6448 0013116  24.9855 335.1994 14.89129532321508
QB50P2                  
1 40032U 14033Y   20144.83604785  .00000188  00000-0  26128-4 0  9992
2 40032  97.9043  66.6715 0012489  23.9672 336.2124 14.88655902321844
PERSEUS-M2              
1 40037U 14033AD  20145.83771726  .00000058  00000-0  12804-4 0  9990
2 40037  97.8895  62.3625 0015249  34.6788 325.5419 14.86541185321157
PERSEUS-M1              
1 40039U 14033AF  20145.77394850  .00000056  00000-0  12607-4 0  9993
2 40039  97.8861  61.0976 0015052  32.9795 327.2357 14.86160920321567
POLYITAN-1              
1 40042U 14033AJ  20145.52563798  .00000238  00000-0  31363-4 0  9991
2 40042  97.9238  70.3509 0015118  14.5559 345.6090 14.88876746321944
TIGRISAT                
1 40043U 14033AK  20145.66776135  .00000104  00000-0  22544-4 0  9991
2 40043  97.7126   3.0712 0061400  75.9128 284.8895 14.74374436318842
AEROCUBE 6A             
1 40045U 14033AM  20145.40958765  .00000195  00000-0  34976-4 0  9998
2 40045  97.7379   8.1901 0059272  68.2810 292.4696 14.75568104318805
AEROCUBE 6B             
1 40046U 14033AN  20143.45267525  .00000255  00000-0  43552-4 0  9996
2 40046  97.7293   5.6193 0058491  73.6814 287.0818 14.75553220318272
UKUBE-1                 
1 40074U 14037F   20146.44584154  .00000286  00000-0  41294-4 0  9998
2 40074  98.4545 333.4146 0003943 181.9777 178.1429 14.84258126318347
BRITE-PL2 (HEWELIUSZ)   
1 40119U 14049B   20144.71749531  .00000110  00000-0  19532-4 0  9997
2 40119  97.8936 237.1822 0017307 185.2427 174.8609 14.84501880312023
FIREBIRD 4              
1 40378U 15003C   20146.27358800  .00001745  00000-0  70141-4 0  9991
2 40378  99.0965 201.8302 0124618  31.8981 328.9717 15.20025572293796
GRIFEX                  
1 40379U 15003D   20145.98981564  .00001436  00000-0  63481-4 0  9994
2 40379  99.1039 193.5419 0133873  57.2042 304.1999 15.16369044293292
EXOCUBE (CP10)          
1 40380U 15003E   20144.70620308  .00001199  00000-0  56206-4 0  9994
2 40380  99.1112 187.7267 0139072  75.7566 285.9061 15.14326119292801
AEROCUBE 8A             
1 40659U 15025J   20145.88907251  .00013584  00000-0  14646-3 0  9994
2 40659  55.0173  41.9993 0111003 113.7965 247.4757 15.56754938 39887
AEROCUBE 8B             
1 40660U 15025K   20145.16641775  .00013246  00000-0  14161-3 0  9990
2 40660  55.0148  43.3443 0110205 113.8137 247.4499 15.57087555 39789
TIANWANG 1C (TW-1C)     
1 40926U 15051B   20146.10579030  .00018158  00000-0  18599-3 0  9999
2 40926  97.0856 197.7374 0007195 160.5142 283.4903 15.65001831263377
TIANWANG 1A (TW-1A)     
1 40928U 15051D   20146.44126853  .00002312  00000-0  55202-4 0  9997
2 40928  97.1100 174.8324 0008677 270.7666 197.0814 15.42504913261827
EXACTVIEW 9             
1 40936U 15052G   20144.44646617  .00000741  00000-0  14490-4 0  9998
2 40936   6.0020 158.5998 0010993 269.8056  90.0812 14.76569747251526
AEROCUBE 5C             
1 40965U 15058B   20144.19991786 -.00000024  00000-0  16997-4 0  9997
2 40965  64.7784 220.4010 0167811  83.3416 278.6756 14.74517935 37580
AEROCUBE 7              
1 40966U 15058C   20144.25313678  .00000002  00000-0  20041-4 0  9993
2 40966  64.7785 218.7563 0166695  82.9993 279.0037 14.74816921 37594
ATHENOXAT 1             
1 41168U 15077C   20146.46383939  .00001625  00000-0  49310-4 0  9993
2 41168  14.9947 230.1470 0011317 167.9023 286.9900 15.14343744245858
GALASSIA                
1 41170U 15077E   20144.58960451  .00001548  00000-0  44644-4 0  9996
2 41170  14.9880 235.7725 0012563 168.6973 191.3631 15.14637195245640
VELOX-II                
1 41171U 15077F   20142.06415417  .00001248  00000-0  32943-4 0  9991
2 41171  14.9916 297.9139 0008780  30.1893 329.8932 15.11673716244872
